NORAD_CAT_ID,OBJECT_NAME,OBJECT_TYPE,EPOCH,MEAN_MOTION,ECCENTRICITY,INCLINATION,RA_OF_ASC_NODE,ARG_OF_PERICENTER,MEAN_ANOMALY,BSTAR,MEAN_MOTION_DOT,MEAN_MOTION_DDOT,TLE_LINE0,TLE_LINE1,TLE_LINE2,SEMIMAJOR_AXIS,PERIOD,APOGEE,PERIGEE,DECAYED
51890.0,STARLINK-3519,PAYLOAD,2022-06-12 22:00:00,15.1808065,0.0001859,53.2175,10.5009,37.3722,34.8916,-0.03781,-0.00726514,0.0,0 STARLINK-3519,1 51890U 22022AQ  22163.91667824 -.00726514  00000-0 -37810-1 0  9995,2 51890  53.2175  10.5009 0001859  37.3722  34.8916 15.18080650  1309,6889.779,94.857,512.925,510.36300000000006,0.0
51890.0,STARLINK-3519,PAYLOAD,2022-06-13 14:00:01,15.17058047,0.0001792,53.2175,7.4658,41.9638,74.461,-0.038657,-0.00721528,0.0,0 STARLINK-3519,1 51890U 22022AQ  22164.58334491 -.00721528  00000-0 -38657-1 0  9990,2 51890  53.2175   7.4658 0001792  41.9638  74.4610 15.17058047 17152,6892.875,94.921,515.975,513.504,0.0
51890.0,STARLINK-3519,PAYLOAD,2022-06-13 22:00:00,15.16549389,0.0001997,53.2175,5.9531,37.3519,100.2316,-0.039377,-0.00724134,0.0,0 STARLINK-3519,1 51890U 22022AQ  22164.91667824 -.00724134  00000-0 -39377-1 0  9992,2 51890  53.2175   5.9531 0001997  37.3519 100.2316 15.16549389  1303,6894.416,94.952,517.658,514.904,0.0
51890.0,STARLINK-3519,PAYLOAD,2022-06-14 14:00:01,15.15528477,0.0001869,53.2175,2.9252,42.857,135.21,-0.040418,-0.00722008,0.0,0 STARLINK-3519,1 51890U 22022AQ  22165.58334491 -.00722008  00000-0 -40418-1 0  9993,2 51890  53.2175   2.9252 0001869  42.8570 135.2100 15.15528477 17306,6897.512,95.016,520.6659999999998,518.087,0.0
51890.0,STARLINK-3519,PAYLOAD,2022-06-14 22:00:00,15.15017958,0.0001971,53.2174,1.4157,41.0832,156.3049,-0.040961,-0.00721208,0.0,0 STARLINK-3519,1 51890U 22022AQ  22165.91667824 -.00721208  00000-0 -40961-1 0  9993,2 51890  53.2174   1.4157 0001971  41.0832 156.3049 15.15017958  1305,6899.061,95.048,522.286,519.566,0.0
51890.0,STARLINK-3519,PAYLOAD,2022-06-15 14:00:01,15.13998562,0.0001781999999999,53.2175,358.3951,46.7834,187.411,-0.042206,-0.00721865,0.0,0 STARLINK-3519,1 51890U 22022AQ  22166.58334491 -.00721865  00000-0 -42206-1 0  9991,2 51890  53.2175 358.3951 0001782  46.7834 187.4110 15.13998562 17450,6902.158,95.112,525.252,522.793,0.0
51890.0,STARLINK-3519,PAYLOAD,2022-06-15 22:00:00,15.13487565,0.0001922,53.2174,356.8891,41.2365,210.4407,-0.042707,-0.00720104,0.0,0 STARLINK-3519,1 51890U 22022AQ  22166.91667824 -.00720104  00000-0 -42707-1 0  9998,2 51890  53.2174 356.8891 0001922  41.2365 210.4407 15.13487565  1309,6903.7109999999975,95.144,526.903,524.249,0.0
51890.0,STARLINK-3519,PAYLOAD,2022-06-16 02:00:01,15.13235527,0.0001829,53.2172,356.1351,39.2295,40.9588,-0.043286,-0.00724375,0.0,0 STARLINK-3519,1 51890U 22022AQ  22167.08334491 -.00724375  00000-0 -43286-1 0  9995,2 51890  53.2172 356.1351 0001829  39.2295  40.9588 15.13235527  1301,6904.478,95.16,527.605,525.08,0.0
51890.0,STARLINK-3519,PAYLOAD,2022-06-19 14:00:01,15.08894233,0.0001696,53.2195,340.3764,45.2551,359.5349,-0.00079893,-0.00013,0.0,0 STARLINK-3519,1 51890U 22022AQ  22170.58334491 -.00013000  00000-0 -79893-3 0  9995,2 51890  53.2195 340.3764 0001696  45.2551 359.5349 15.08894233  1306,6917.715,95.434,540.753,538.406,0.0
51890.0,STARLINK-3519,PAYLOAD,2022-06-19 20:00:01,15.08896063,0.0001918,53.2193,339.2554,43.7467,279.7696,-0.0057854,-0.00091339,0.0,0 STARLINK-3519,1 51890U 22022AQ  22170.83334491 -.00091339  00000-0 -57854-2 0  9996,2 51890  53.2193 339.2554 0001918  43.7467 279.7696 15.08896063 18101,6917.709,95.434,540.901,538.247,0.0
51890.0,STARLINK-3519,PAYLOAD,2022-06-19 22:00:00,15.08876874,0.0001939,53.2191,338.8814,42.9318,13.4993,-0.0052548,-0.00083041,0.0,0 STARLINK-3519,1 51890U 22022AQ  22170.91667824 -.00083041  00000-0 -52548-2 0  9990,2 51890  53.2191 338.8814 0001939  42.9318  13.4993 15.08876874  1307,6917.768,95.435,540.974,538.2909999999998,0.0
51890.0,STARLINK-3519,PAYLOAD,2022-06-20 12:00:00,15.08777265,0.0001846,53.219,336.2614,52.9906,293.6951,0.0035108,0.00055934,0.0,0 STARLINK-3519,1 51890U 22022AQ  22171.50001157  .00055934  00000-0  35108-2 0  9998,2 51890  53.2190 336.2614 0001846  52.9906 293.6951 15.08777265 18204,6918.071999999999,95.442,541.214,538.66,0.0
51890.0,STARLINK-3519,PAYLOAD,2022-06-20 14:00:01,15.08801916,0.0001902,53.2189,335.8879,51.3524,28.2107,0.001042,0.00016317,0.0,0 STARLINK-3519,1 51890U 22022AQ  22171.58334491  .00016317  00000-0  10420-2 0  9998,2 51890  53.2189 335.8879 0001902  51.3524  28.2107 15.08801916  1301,6917.996999999999,95.44,541.178,538.5459999999998,0.0
51890.0,STARLINK-3519,PAYLOAD,2022-06-20 22:00:00,15.08800165,0.0002053,53.2184,334.3929,46.7543,44.3714,0.0032595,0.00051913,0.0,0 STARLINK-3519,1 51890U 22022AQ  22171.91667824  .00051913  00000-0  32595-2 0  9992,2 51890  53.2184 334.3929 0002053  46.7543  44.3714 15.08800165  1301,6918.002,95.44,541.2869999999998,538.447,0.0
51890.0,STARLINK-3519,PAYLOAD,2022-06-21 06:00:00,15.08866604,0.0002016,53.218,332.8963,49.0141,53.682,-0.0023039,-0.00036795,0.0,0 STARLINK-3519,1 51890U 22022AQ  22172.25001157 -.00036795  00000-0 -23039-2 0  9997,2 51890  53.2180 332.8963 0002016  49.0141  53.6820 15.08866604 18317,6917.799,95.436,541.059,538.269,0.0
51890.0,STARLINK-3519,PAYLOAD,2022-06-21 14:00:01,15.08857104,0.0001988,53.2184,331.3992,52.3507,61.9285,-0.0012502,-0.0002014,0.0,0 STARLINK-3519,1 51890U 22022AQ  22172.58334491 -.00020140  00000-0 -12502-2 0  9993,2 51890  53.2184 331.3992 0001988  52.3507  61.9285 15.08857104  1300,6917.828,95.436,541.068,538.318,0.0
51890.0,STARLINK-3519,PAYLOAD,2022-06-21 22:00:00,15.08835297,0.0002082,53.218,329.9039,46.3087,79.5775,0.0020429,0.00032371,0.0,0 STARLINK-3519,1 51890U 22022AQ  22172.91667824  .00032371  00000-0  20429-2 0  9993,2 51890  53.2180 329.9039 0002082  46.3087  79.5775 15.08835297 18411,6917.895,95.438,541.2,538.319,0.0
51890.0,STARLINK-3519,PAYLOAD,2022-06-22 14:00:01,15.08853639,0.000196,53.2183,326.9101,49.7611,99.3207,-0.0012297,-0.00019813,0.0,0 STARLINK-3519,1 51890U 22022AQ  22173.58334491 -.00019813  00000-0 -12297-2 0  9990,2 51890  53.2183 326.9101 0001960  49.7611  99.3207 15.08853639 18516,6917.839,95.437,541.06,538.3480000000002,0.0
51890.0,STARLINK-3519,PAYLOAD,2022-06-22 22:00:00,15.08843818,0.0002045,53.2181,325.4147,43.8129,116.873,-5.3651e-06,-3.74e-06,0.0,0 STARLINK-3519,1 51890U 22022AQ  22173.91667824 -.00000374  00000-0 -53651-5 0  9990,2 51890  53.2181 325.4147 0002045  43.8129 116.8730 15.08843818  1305,6917.869000000002,95.437,541.148,538.319,0.0
51890.0,STARLINK-3519,PAYLOAD,2022-06-23 14:00:01,15.08849206,0.0001961,53.2183,322.4213,47.4047,136.4717,-0.0010192,-0.00016476,0.0,0 STARLINK-3519,1 51890U 22022AQ  22174.58334491 -.00016476  00000-0 -10192-2 0  9995,2 51890  53.2183 322.4213 0001961  47.4047 136.4717 15.08849206 18660,6917.852,95.437,541.0740000000002,538.361,0.0
51890.0,STARLINK-3519,PAYLOAD,2022-06-23 22:00:00,15.08838859,0.000204,53.2183,320.9254,42.2111,153.2661,0.001767,0.00027945,0.0,0 STARLINK-3519,1 51890U 22022AQ  22174.91667824  .00027945  00000-0  17670-2 0  9990,2 51890  53.2183 320.9254 0002040  42.2111 153.2661 15.08838859  1302,6917.884,95.438,541.16,538.3380000000002,0.0
51890.0,STARLINK-3519,PAYLOAD,2022-06-24 14:00:01,15.08843954,0.0001903,53.2189,317.9319,44.68899999999999,173.9813,-0.0011456,-0.00018476,0.0,0 STARLINK-3519,1 51890U 22022AQ  22175.58334491 -.00018476  00000-0 -11456-2 0  9992,2 51890  53.2189 317.9319 0001903  44.6890 173.9813 15.08843954 18817,6917.868,95.437,541.05,538.4169999999998,0.0
51890.0,STARLINK-3519,PAYLOAD,2022-06-24 22:00:01,15.08847882,0.0001962,53.2187,316.4361,40.2917,190.0295,-0.0013149,-0.00021159,0.0,0 STARLINK-3519,1 51890U 22022AQ  22175.91668981 -.00021159  00000-0 -13149-2 0  9996,2 51890  53.2187 316.4361 0001962  40.2917 190.0295 15.08847882  1307,6917.856,95.437,541.0790000000002,538.364,0.0
51890.0,STARLINK-3519,PAYLOAD,2022-06-25 14:00:01,15.08836252,0.0001832,53.2191,313.443,42.1844,211.2453,-0.0010513,-0.00016979,0.0,0 STARLINK-3519,1 51890U 22022AQ  22176.58334491 -.00016979  00000-0 -10513-2 0  9992,2 51890  53.2191 313.4430 0001832  42.1844 211.2453 15.08836252 18963,6917.892,95.438,541.024,538.489,0.0
51890.0,STARLINK-3519,PAYLOAD,2022-06-25 22:00:00,15.08839246,0.0001895,53.2188,311.947,38.6077,226.409,0.00059561,9.204e-05,0.0,0 STARLINK-3519,1 51890U 22022AQ  22176.91667824  .00009204  00000-0  59561-3 0  9996,2 51890  53.2188 311.9470 0001895  38.6077 226.4090 15.08839246  1304,6917.8830000000025,95.438,541.059,538.437,0.0
51890.0,STARLINK-3519,PAYLOAD,2022-06-26 06:00:00,15.08822344,0.0001694,53.219,310.4489,43.952,232.6698,0.0034099,0.00054373,0.0,0 STARLINK-3519,1 51890U 22022AQ  22177.25001157  .00054373  00000-0  34099-2 0  9990,2 51890  53.2190 310.4489 0001694  43.9520 232.6698 15.08822344 19077,6917.934,95.439,540.971,538.627,0.0
51890.0,STARLINK-3519,PAYLOAD,2022-06-26 14:00:01,15.0884081,0.0001906,53.2191,308.9541,44.7174,243.5452,-0.00064758,-0.0001058,0.0,0 STARLINK-3519,1 51890U 22022AQ  22177.58335648 -.00010580  00000-0 -64758-3 0  9991,2 51890  53.2191 308.9541 0001906  44.7174 243.5452 15.08840810 19122,6917.878000000002,95.438,541.061,538.424,0.0
51890.0,STARLINK-3519,PAYLOAD,2022-06-26 22:00:00,15.08843847,0.0001949,53.2186,307.458,42.1429,257.6382,-4.1499e-05,-9.49e-06,0.0,0 STARLINK-3519,1 51890U 22022AQ  22177.91667824 -.00000949  00000-0 -41499-4 0  9998,2 51890  53.2186 307.4580 0001949  42.1429 257.6382 15.08843847  1307,6917.869000000002,95.437,541.082,538.385,0.0
51890.0,STARLINK-3519,PAYLOAD,2022-06-27 14:00:01,15.08832007,0.0001999,53.2188,304.4655,48.2834,274.691,-0.0015396,-0.00024703,0.0,0 STARLINK-3519,1 51890U 22022AQ  22178.58334491 -.00024703  00000-0 -15396-2 0  9992,2 51890  53.2188 304.4655 0001999  48.2834 274.6910 15.08832007  1303,6917.905,95.438,541.153,538.387,0.0
